0 SL-16 R/B
1 19650U 88102B   18268.90285493 +.00000130 +00000-0 +90602-4 0  9990
2 19650 070.9969 115.8164 0015052 202.1213 157.9262 14.15773395541639
0 SL-16 DEB
1 19656U 88102C   18268.53221518 +.00000051 +00000-0 +90075-4 0  9999
2 19656 070.9807 309.5148 0213579 226.6698 131.6427 13.71200470492325
0 SL-16 DEB
1 19657U 88102D   18268.76929578 +.00000051 +00000-0 +89118-4 0  9992
2 19657 070.9811 297.3148 0212175 192.5124 285.4223 13.71521109492744
0 SL-16 DEB
1 19658U 88102E   18268.34755227 -.00000009 +00000-0 +29693-4 0  9991
2 19658 071.0208 242.2631 0195947 073.7714 074.6662 13.74369091495814
0 SL-16 DEB
1 19659U 88102F   18268.91742185 +.00000044 +00000-0 +78139-4 0  9991
2 19659 071.0368 170.4402 0189276 332.8459 105.9131 13.76651798498433
0 OPS 4682 DEB
1 19664U 65027AX  18268.02544950 -.00000459 +00000-0 -15141-2 0  9994
2 19664 090.2941 287.6019 0026722 130.3523 258.0677 13.01621514689273
0 SL-12 R/B(2)
1 19686U 88108D   18268.37916799 +.00000030 +00000-0 +00000-0 0  9994
2 19686 014.3944 352.2469 0011882 128.3547 218.6803 01.01513672095792
0 ASTRA 1A
1 19688U 88109B   18268.62705792 -.00000230 +00000-0 +00000-0 0  9997
2 19688 013.2665 027.1502 0011989 053.2343 302.6951 00.98339634088368
0 ARIANE 44LP R/B
1 19689U 88109C   18268.77641138 -.00000040 +00000-0 +31446-4 0  9998
2 19689 007.1237 295.8807 7186863 331.7189 003.3431 02.28834360213292
0 COSMOS 1987 (GLONASS)
1 19749U 89001A   18268.65592045 +.00000032 +00000-0 +00000-0 0  9994
2 19749 064.1368 169.1492 0005020 245.0233 044.8508 02.13104123231167
0 COSMOS 1988 (GLONASS)
1 19750U 89001B   18268.72303222 +.00000032 +00000-0 +00000-0 0  9991
2 19750 064.1570 169.4220 0013977 213.6819 068.5871 02.13102251231152
0 COSMOS 1989 (ETALON 1)
1 19751U 89001C   18268.72373216 +.00000032 +00000-0 +00000-0 0  9992
2 19751 064.1474 169.0785 0021855 209.6577 072.3802 02.13156371231225
0 SL-12 DEB
1 19753U 89001E   18268.44559858 +.00000030 +00000-0 +00000-0 0  9999
2 19753 064.1473 169.0648 0022840 208.5934 086.2136 02.13160036231737
0 SL-12 R/B(2)
1 19754U 89001F   18268.38550108 +.00000031 +00000-0 +00000-0 0  9993
2 19754 064.1431 167.9955 0012700 238.6566 050.9517 02.13421336231474
0 SL-12 R/B(AUX MOTOR)
1 19755U 89001G   18268.40485547 -.00000017 +00000-0 -12923-3 0  9997
2 19755 064.8407 296.6847 5690226 202.6052 332.0662 04.25456409461021
0 GORIZONT 17
1 19765U 89004A   18268.22699760 +.00000025 +00000-0 +00000-0 0  9992
2 19765 015.0310 355.9945 0017160 092.8877 246.6972 00.99063680107618
0 COSMOS 1992
1 19769U 89005A   18268.75707682 +.00000006 +00000-0 +11193-4 0  9996
2 19769 074.0490 017.3041 0022651 201.2993 158.7219 14.34821881552090
0 SL-8 R/B
1 19770U 89005B   18268.50598973 +.00000022 +00000-0 +15868-4 0  9993
2 19770 074.0432 271.6088 0006014 243.4157 230.6529 14.38788856553205
0 INTELSAT 515
1 19772U 89006A   18268.85232056 +.00000044 +00000-0 +00000-0 0  9993
2 19772 014.8748 017.2143 0018666 046.0226 320.2715 00.99101566096681
0 ARIANE 2 R/B
1 19773U 89006B   18268.45272724 -.00000155 +00000-0 +20538-3 0  9991
2 19773 008.2399 073.6451 7179246 123.0861 326.2661 02.28347898246136
0 SL-12 R/B(2)
1 19776U 89004F   18268.38360316 -.00000123 +00000-0 +00000-0 0  9993
2 19776 015.4635 356.9709 0021200 050.7172 297.6581 00.97993788090739
0 SL-12 R/B(2)
1 19777U 88095F   18268.75743779 -.00000030 +00000-0 +00000-0 0  9999
2 19777 015.4834 356.1478 0013271 205.5064 148.9686 00.97937743094653
0 COSMOS 1994
1 19785U 89009A   18268.73741208 +.00000009 +00000-0 -76324-5 0  9990
2 19785 082.6244 348.3874 0012402 250.1674 223.0803 12.64277499366845
0 COSMOS 1995
1 19786U 89009B   18268.82446637 +.00000014 +00000-0 +20791-4 0  9990
2 19786 082.6274 017.8406 0003923 046.9240 076.0722 12.62145191364414
0 COSMOS 1996
1 19787U 89009C   18268.75009433 +.00000018 +00000-0 +39576-4 0  9997
2 19787 082.6186 359.8699 0006028 339.6825 138.4631 12.62854719365292
0 COSMOS 1997
1 19788U 89009D   18268.75200956 +.00000005 +00000-0 -29102-4 0  9992
2 19788 082.6236 355.5038 0008864 277.7950 197.1370 12.63623006366152
0 COSMOS 1998
1 19789U 89009E   18268.64351947 +.00000037 +00000-0 +14083-3 0  9993
2 19789 082.6138 332.4420 0015785 225.6670 134.3130 12.64855085367304
0 COSMOS 1999
1 19790U 89009F   18268.83869866 +.00000037 +00000-0 +13805-3 0  9991
2 19790 082.6201 328.5747 0020112 178.6502 231.6646 12.65669435368336
0 SL-14 R/B
1 19791U 89009G   18268.96714128 +.00000013 +00000-0 +12967-4 0  9999
2 19791 082.6087 099.3730 0035595 129.2659 341.8288 12.54858562356703
0 SL-6 R/B(2)
1 19799U 89011D   18268.92240821 +.00000168 +00000-0 -56944+0 0  9990
2 19799 067.3247 122.9369 6186003 097.7402 167.1592 02.04174069183940
0 NAVSTAR 13 (USA 35)
1 19802U 89013A   18268.51134247 +.00000008 +00000-0 +00000-0 0  9991
2 19802 054.1872 189.9239 0036656 179.4040 061.0282 01.85322913206844
0 EXOS D (AKEBONO)
1 19822U 89016A   18268.89084452 +.00015042 +59750-6 +27649-3 0  9996
2 19822 075.0267 107.6395 1833158 202.0270 149.1004 11.86059411964109
0 COSMOS 2004
1 19826U 89017A   18268.92341208 +.00000033 +00000-0 +19831-4 0  9997
2 19826 082.9551 201.1340 0030403 164.2927 260.3026 13.72261663481526
0 SL-8 R/B
1 19827U 89017B   18268.88713882 +.00000044 +00000-0 +29748-4 0  9994
2 19827 082.9544 176.5761 0033021 076.8854 353.7652 13.74093121483457
0 SL-8 DEB
1 19831U 89005C   18268.90746706 +.00000237 +00000-0 +64680-4 0  9998
2 19831 074.0670 109.4853 0014221 134.5611 290.3277 14.52682364562193
0 DELTA 1 DEB
1 19834U 72058JM  18268.28921713 +.00000072 +00000-0 +25011-4 0  9997
2 19834 098.6866 280.7646 0139941 105.9871 255.6792 14.57245563528587
0 METEOR 2-18
1 19851U 89018A   18268.63359564 +.00000023 +00000-0 +68598-5 0  9992
2 19851 082.5175 264.0541 0013485 143.4376 353.7651 13.85707959495232
0 SL-14 R/B
1 19852U 89018B   18268.57321238 +.00000025 +00000-0 +89259-5 0  9992
2 19852 082.5179 281.8750 0017027 195.3696 164.6949 13.84049028493729
0 COSMOS 1275 DEB
1 19853U 81053MH  18268.12527583 +.00000309 +00000-0 +34559-3 0  9992
2 19853 082.9868 149.5437 0129175 074.9974 079.6160 13.64413224470906
0 SL-12 R/B(AUX MOTOR)
1 19856U 89001H   18268.36362893 -.00000033 +00000-0 -84050-4 0  9991
2 19856 064.9510 288.3417 5738319 167.3994 217.4403 04.25323361460509
0 ARIANE 1 DEB
1 19857U 85056P   18268.87165310 +.00000258 +00000-0 +75317-2 0  9990
2 19857 007.0559 356.2320 7115787 207.0562 317.8556 02.29090690033038
0 JCSAT 1
1 19874U 89020A   18268.12868347 +.00000030 +00000-0 +00000-0 0  9995
2 19874 014.9247 016.5697 0000557 285.3135 136.0565 00.99535355100759
0 METEOSAT 4 (MOP 1)
1 19876U 89020B   18268.24311184 -.00000071 +00000-0 +00000-0 0  9998
2 19876 015.9954 008.7273 0016053 138.4735 186.6056 00.97108621085525
0 TDRS 4
1 19883U 89021B   18268.76563920 -.00000086 +00000-0 +00000-0 0  9997
2 19883 013.0097 013.1017 0020342 253.9406 117.8440 00.98481905280261
0 IUS R/B(1)
1 19884U 89021C   18268.16447389 +.00033114 +79848-6 +92118-3 0  9995
2 19884 026.4333 344.9014 5907492 222.3698 072.6006 04.26389347353509
0 COSMOS 2008
1 19902U 89025A   18268.95333988 -.00000035 +00000-0 -10704-3 0  9993
2 19902 074.0077 247.1081 0050734 244.8691 174.0798 12.57820728354802
0 COSMOS 2009
1 19903U 89025B   18268.83854505 +.00000001 +00000-0 +10628-3 0  9990
2 19903 074.0087 299.1926 0042006 312.9798 098.9334 12.55900709352744
0 COSMOS 2010
1 19904U 89025C   18268.65874260 -.00000017 +00000-0 -52941-5 0  9996
2 19904 074.0123 350.0825 0030685 008.0986 101.0397 12.54025587264246
0 COSMOS 2011
1 19905U 89025D   18268.86083562 -.00000029 +00000-0 -80346-4 0  9999
2 19905 074.0119 039.7435 0020527 071.1100 044.6109 12.52164357348752
0 COSMOS 2012
1 19906U 89025E   18268.95113194 -.00000013 +00000-0 +18264-4 0  9997
2 19906 074.0077 092.3799 0009973 139.4034 331.5166 12.50201075346677
0 COSMOS 2013
1 19907U 89025F   18268.81324194 +.00000010 +00000-0 +17634-3 0  9992
2 19907 074.0097 147.5653 0010224 274.1129 153.2898 12.48133624344417
0 COSMOS 2014
1 19908U 89025G   18268.90121264 -.00000021 +00000-0 -34521-4 0  9995
2 19908 074.0102 197.7014 0012255 027.7525 039.1168 12.46246313342352
0 COSMOS 2015
1 19909U 89025H   18268.44825170 -.00000025 +00000-0 -68607-4 0  9998
2 19909 074.0072 257.4322 0024639 095.9114 059.5618 12.44024298339867
0 SL-8 R/B
1 19910U 89025J   18268.94812328 -.00000048 +00000-0 -30263-3 0  9997
2 19910 074.0047 078.9795 0132027 011.5935 105.7595 12.23303009317576
0 IUS R/B(2)
1 19913U 89021D   18268.91274241 +.00000107 +00000-0 +00000-0 0  9996
2 19913 012.9453 341.8955 0021712 122.2914 244.0222 01.00605137097272
0 TELE-X
1 19919U 89027A   18268.42007524 +.00000057 +00000-0 +00000-0 0  9996
2 19919 015.0943 015.6429 0004973 170.9441 201.9444 00.99177600089223
0 ARIANE 2 R/B
1 19920U 89027B   18268.49861855 +.00000179 +00000-0 +18693-3 0  9995
2 19920 004.0391 337.4554 5280125 207.5997 334.4363 05.02204823437212
0 COSMOS 2016
1 19921U 89028A   18268.69078587 +.00000054 +00000-0 +39992-4 0  9999
2 19921 082.9589 112.5361 0040449 146.6864 282.1074 13.75059343478092
0 SL-8 R/B
1 19922U 89028B   18268.93826103 -.00000056 +00000-0 -71787-4 0  9994
2 19922 082.9556 081.2778 0036989 022.9937 337.2865 13.77209617481088
0 RADUGA 23
1 19928U 89030A   18268.63313534 -.00000371 +00000-0 +00000-0 0  9994
2 19928 014.6640 355.1479 0016932 131.7465 220.0181 01.00235131106551
0 SL-12 R/B(2)
1 19931U 89030D   18268.25720271 -.00000041 +00000-0 +00000-0 0  9990
2 19931 015.4888 357.7293 0013937 134.0822 216.6110 00.97921072092418
0 SL-8 DEB
1 19945U 89005D   18268.38790865 +.00000208 +00000-0 +65073-4 0  9996
2 19945 074.0580 252.7108 0023803 296.7700 214.6109 14.46628116378758
